[{"OBJECT_NAME":"YAOGAN-39 04B","OBJECT_ID":"2023-163C","EPOCH":"2026-03-09T21:42:05.108256","MEAN_MOTION":15.16740453,"ECCENTRICITY":0.00026845,"INCLINATION":34.9928,"RA_OF_ASC_NODE":267.8227,"ARG_OF_PERICENTER":59.5267,"MEAN_ANOMALY":300.571,"EPHEMERIS_TYPE":0,"CLASSIFICATION_TYPE":"U","NORAD_CAT_ID":58143,"ELEMENT_SET_NO":999,"REV_AT_EPOCH":13222,"BSTAR":0.00037765963,"MEAN_MOTION_DOT":7.552e-5,"MEAN_MOTION_DDOT":0},{"OBJECT_NAME":"TRANSPORTER-15 OBJECT CX","OBJECT_ID":"2025-276CX","EPOCH":"2026-03-09T18:16:24.883104","MEAN_MOTION":15.19627935,"ECCENTRICITY":1.891e-5,"INCLINATION":97.4237,"RA_OF_ASC_NODE":144.0993,"ARG_OF_PERICENTER":69.686,"MEAN_ANOMALY":290.4395,"EPHEMERIS_TYPE":0,"CLASSIFICATION_TYPE":"U","NORAD_CAT_ID":66759,"ELEMENT_SET_NO":999,"REV_AT_EPOCH":1533,"BSTAR":0.00041936127,"MEAN_MOTION_DOT":8.872e-5,"MEAN_MOTION_DDOT":0}]
